{
"type": "FeatureCollection",
"name": "HEXGRID_USA_GA_2014_HEX05_wgs",
"crs": { "type": "name", "properties": { "name": "urn:ogc:def:crs:OGC:1.3:CRS84" } },
"features": [
{ "type": "Feature", "properties": { "ADM0_ISO3": "USA", "ADM0_NAME": "United States", "ADM0_CODE": 2, "HEX05_CODE": "199775", "HEX05_X": -82.125, "HEX05_Y": 30.12711236119161, "VERSION": "0.01" }, "geometry": { "type": "Polygon", "coordinates": [ [ [ -82.375, 30.271449928489016 ], [ -82.125, 30.415787495786422 ], [ -81.875, 30.271449928489016 ], [ -81.875, 29.982774793894205 ], [ -82.125, 29.838437226596799 ], [ -82.375, 29.982774793894205 ], [ -82.375, 30.271449928489016 ] ] ] } },
{ "type": "Feature", "properties": { "ADM0_ISO3": "USA", "ADM0_NAME": "United States", "ADM0_CODE": 2, "HEX05_CODE": "200490", "HEX05_X": -84.875, "HEX05_Y": 30.560125063083834, "VERSION": "0.01" }, "geometry": { "type": "Polygon", "coordinates": [ [ [ -85.125, 30.70446263038124 ], [ -84.875, 30.848800197678646 ], [ -84.625, 30.70446263038124 ], [ -84.625, 30.415787495786429 ], [ -84.875, 30.271449928489023 ], [ -85.125, 30.415787495786429 ], [ -85.125, 30.70446263038124 ] ] ] } },
{ "type": "Feature", "properties": { "ADM0_ISO3": "USA", "ADM0_NAME": "United States", "ADM0_CODE": 2, "HEX05_CODE": "200491", "HEX05_X": -84.375, "HEX05_Y": 30.560125063083834, "VERSION": "0.01" }, "geometry": { "type": "Polygon", "coordinates": [ [ [ -84.625, 30.70446263038124 ], [ -84.375, 30.848800197678646 ], [ -84.125, 30.70446263038124 ], [ -84.125, 30.415787495786429 ], [ -84.375, 30.271449928489023 ], [ -84.625, 30.415787495786429 ], [ -84.625, 30.70446263038124 ] ] ] } },
{ "type": "Feature", "properties": { "ADM0_ISO3": "USA", "ADM0_NAME": "United States", "ADM0_CODE": 2, "HEX05_CODE": "200492", "HEX05_X": -83.875, "HEX05_Y": 30.560125063083834, "VERSION": "0.01" }, "geometry": { "type": "Polygon", "coordinates": [ [ [ -84.125, 30.70446263038124 ], [ -83.875, 30.848800197678646 ], [ -83.625, 30.70446263038124 ], [ -83.625, 30.415787495786429 ], [ -83.875, 30.271449928489023 ], [ -84.125, 30.415787495786429 ], [ -84.125, 30.70446263038124 ] ] ] } },
{ "type": "Feature", "properties": { "ADM0_ISO3": "USA", "ADM0_NAME": "United States", "ADM0_CODE": 2, "HEX05_CODE": "200493", "HEX05_X": -83.375, "HEX05_Y": 30.560125063083834, "VERSION": "0.01" }, "geometry": { "type": "Polygon", "coordinates": [ [ [ -83.625, 30.70446263038124 ], [ -83.375, 30.848800197678646 ], [ -83.125, 30.70446263038124 ], [ -83.125, 30.415787495786429 ], [ -83.375, 30.271449928489023 ], [ -83.625, 30.415787495786429 ], [ -83.625, 30.70446263038124 ] ] ] } },
{ "type": "Feature", "properties": { "ADM0_ISO3": "USA", "ADM0_NAME": "United States", "ADM0_CODE": 2, "HEX05_CODE": "200494", "HEX05_X": -82.875, "HEX05_Y": 30.560125063083834, "VERSION": "0.01" }, "geometry": { "type": "Polygon", "coordinates": [ [ [ -83.125, 30.70446263038124 ], [ -82.875, 30.848800197678646 ], [ -82.625, 30.70446263038124 ], [ -82.625, 30.415787495786429 ], [ -82.875, 30.271449928489023 ], [ -83.125, 30.415787495786429 ], [ -83.125, 30.70446263038124 ] ] ] } },
{ "type": "Feature", "properties": { "ADM0_ISO3": "USA", "ADM0_NAME": "United States", "ADM0_CODE": 2, "HEX05_CODE": "200495", "HEX05_X": -82.375, "HEX05_Y": 30.560125063083834, "VERSION": "0.01" }, "geometry": { "type": "Polygon", "coordinates": [ [ [ -82.625, 30.70446263038124 ], [ -82.375, 30.848800197678646 ], [ -82.125, 30.70446263038124 ], [ -82.125, 30.415787495786429 ], [ -82.375, 30.271449928489023 ], [ -82.625, 30.415787495786429 ], [ -82.625, 30.70446263038124 ] ] ] } },
{ "type": "Feature", "properties": { "ADM0_ISO3": "USA", "ADM0_NAME": "United States", "ADM0_CODE": 2, "HEX05_CODE": "200496", "HEX05_X": -81.875, "HEX05_Y": 30.560125063083834, "VERSION": "0.01" }, "geometry": { "type": "Polygon", "coordinates": [ [ [ -82.125, 30.70446263038124 ], [ -81.875, 30.848800197678646 ], [ -81.625, 30.70446263038124 ], [ -81.625, 30.415787495786429 ], [ -81.875, 30.271449928489023 ], [ -82.125, 30.415787495786429 ], [ -82.125, 30.70446263038124 ] ] ] } },
{ "type": "Feature", "properties": { "ADM0_ISO3": "USA", "ADM0_NAME": "United States", "ADM0_CODE": 2, "HEX05_CODE": "200497", "HEX05_X": -81.375, "HEX05_Y": 30.560125063083834, "VERSION": "0.01" }, "geometry": { "type": "Polygon", "coordinates": [ [ [ -81.625, 30.70446263038124 ], [ -81.375, 30.848800197678646 ], [ -81.125, 30.70446263038124 ], [ -81.125, 30.415787495786429 ], [ -81.375, 30.271449928489023 ], [ -81.625, 30.415787495786429 ], [ -81.625, 30.70446263038124 ] ] ] } },
{ "type": "Feature", "properties": { "ADM0_ISO3": "USA", "ADM0_NAME": "United States", "ADM0_CODE": 2, "HEX05_CODE": "201210", "HEX05_X": -85.125, "HEX05_Y": 30.993137764976048, "VERSION": "0.01" }, "geometry": { "type": "Polygon", "coordinates": [ [ [ -85.375, 31.13747533227345 ], [ -85.125, 31.281812899570856 ], [ -84.875, 31.13747533227345 ], [ -84.875, 30.848800197678639 ], [ -85.125, 30.704462630381233 ], [ -85.375, 30.848800197678639 ], [ -85.375, 31.13747533227345 ] ] ] } },
{ "type": "Feature", "properties": { "ADM0_ISO3": "USA", "ADM0_NAME": "United States", "ADM0_CODE": 2, "HEX05_CODE": "201211", "HEX05_X": -84.625, "HEX05_Y": 30.993137764976048, "VERSION": "0.01" }, "geometry": { "type": "Polygon", "coordinates": [ [ [ -84.875, 31.13747533227345 ], [ -84.625, 31.281812899570856 ], [ -84.375, 31.13747533227345 ], [ -84.375, 30.848800197678639 ], [ -84.625, 30.704462630381233 ], [ -84.875, 30.848800197678639 ], [ -84.875, 31.13747533227345 ] ] ] } },
{ "type": "Feature", "properties": { "ADM0_ISO3": "USA", "ADM0_NAME": "United States", "ADM0_CODE": 2, "HEX05_CODE": "201212", "HEX05_X": -84.125, "HEX05_Y": 30.993137764976048, "VERSION": "0.01" }, "geometry": { "type": "Polygon", "coordinates": [ [ [ -84.375, 31.13747533227345 ], [ -84.125, 31.281812899570856 ], [ -83.875, 31.13747533227345 ], [ -83.875, 30.848800197678639 ], [ -84.125, 30.704462630381233 ], [ -84.375, 30.848800197678639 ], [ -84.375, 31.13747533227345 ] ] ] } },
{ "type": "Feature", "properties": { "ADM0_ISO3": "USA", "ADM0_NAME": "United States", "ADM0_CODE": 2, "HEX05_CODE": "201213", "HEX05_X": -83.625, "HEX05_Y": 30.993137764976048, "VERSION": "0.01" }, "geometry": { "type": "Polygon", "coordinates": [ [ [ -83.875, 31.13747533227345 ], [ -83.625, 31.281812899570856 ], [ -83.375, 31.13747533227345 ], [ -83.375, 30.848800197678639 ], [ -83.625, 30.704462630381233 ], [ -83.875, 30.848800197678639 ], [ -83.875, 31.13747533227345 ] ] ] } },
{ "type": "Feature", "properties": { "ADM0_ISO3": "USA", "ADM0_NAME": "United States", "ADM0_CODE": 2, "HEX05_CODE": "201214", "HEX05_X": -83.125, "HEX05_Y": 30.993137764976048, "VERSION": "0.01" }, "geometry": { "type": "Polygon", "coordinates": [ [ [ -83.375, 31.13747533227345 ], [ -83.125, 31.281812899570856 ], [ -82.875, 31.13747533227345 ], [ -82.875, 30.848800197678639 ], [ -83.125, 30.704462630381233 ], [ -83.375, 30.848800197678639 ], [ -83.375, 31.13747533227345 ] ] ] } },
{ "type": "Feature", "properties": { "ADM0_ISO3": "USA", "ADM0_NAME": "United States", "ADM0_CODE": 2, "HEX05_CODE": "201215", "HEX05_X": -82.625, "HEX05_Y": 30.993137764976048, "VERSION": "0.01" }, "geometry": { "type": "Polygon", "coordinates": [ [ [ -82.875, 31.13747533227345 ], [ -82.625, 31.281812899570856 ], [ -82.375, 31.13747533227345 ], [ -82.375, 30.848800197678639 ], [ -82.625, 30.704462630381233 ], [ -82.875, 30.848800197678639 ], [ -82.875, 31.13747533227345 ] ] ] } },
{ "type": "Feature", "properties": { "ADM0_ISO3": "USA", "ADM0_NAME": "United States", "ADM0_CODE": 2, "HEX05_CODE": "201216", "HEX05_X": -82.125, "HEX05_Y": 30.993137764976048, "VERSION": "0.01" }, "geometry": { "type": "Polygon", "coordinates": [ [ [ -82.375, 31.13747533227345 ], [ -82.125, 31.281812899570856 ], [ -81.875, 31.13747533227345 ], [ -81.875, 30.848800197678639 ], [ -82.125, 30.704462630381233 ], [ -82.375, 30.848800197678639 ], [ -82.375, 31.13747533227345 ] ] ] } },
{ "type": "Feature", "properties": { "ADM0_ISO3": "USA", "ADM0_NAME": "United States", "ADM0_CODE": 2, "HEX05_CODE": "201217", "HEX05_X": -81.625, "HEX05_Y": 30.993137764976048, "VERSION": "0.01" }, "geometry": { "type": "Polygon", "coordinates": [ [ [ -81.875, 31.13747533227345 ], [ -81.625, 31.281812899570856 ], [ -81.375, 31.13747533227345 ], [ -81.375, 30.848800197678639 ], [ -81.625, 30.704462630381233 ], [ -81.875, 30.848800197678639 ], [ -81.875, 31.13747533227345 ] ] ] } },
{ "type": "Feature", "properties": { "ADM0_ISO3": "USA", "ADM0_NAME": "United States", "ADM0_CODE": 2, "HEX05_CODE": "201931", "HEX05_X": -84.875, "HEX05_Y": 31.426150466868272, "VERSION": "0.01" }, "geometry": { "type": "Polygon", "coordinates": [ [ [ -85.125, 31.570488034165674 ], [ -84.875, 31.71482560146308 ], [ -84.625, 31.570488034165674 ], [ -84.625, 31.281812899570863 ], [ -84.875, 31.137475332273457 ], [ -85.125, 31.281812899570863 ], [ -85.125, 31.570488034165674 ] ] ] } },
{ "type": "Feature", "properties": { "ADM0_ISO3": "USA", "ADM0_NAME": "United States", "ADM0_CODE": 2, "HEX05_CODE": "201932", "HEX05_X": -84.375, "HEX05_Y": 31.426150466868272, "VERSION": "0.01" }, "geometry": { "type": "Polygon", "coordinates": [ [ [ -84.625, 31.570488034165674 ], [ -84.375, 31.71482560146308 ], [ -84.125, 31.570488034165674 ], [ -84.125, 31.281812899570863 ], [ -84.375, 31.137475332273457 ], [ -84.625, 31.281812899570863 ], [ -84.625, 31.570488034165674 ] ] ] } },
{ "type": "Feature", "properties": { "ADM0_ISO3": "USA", "ADM0_NAME": "United States", "ADM0_CODE": 2, "HEX05_CODE": "201933", "HEX05_X": -83.875, "HEX05_Y": 31.426150466868272, "VERSION": "0.01" }, "geometry": { "type": "Polygon", "coordinates": [ [ [ -84.125, 31.570488034165674 ], [ -83.875, 31.71482560146308 ], [ -83.625, 31.570488034165674 ], [ -83.625, 31.281812899570863 ], [ -83.875, 31.137475332273457 ], [ -84.125, 31.281812899570863 ], [ -84.125, 31.570488034165674 ] ] ] } },
{ "type": "Feature", "properties": { "ADM0_ISO3": "USA", "ADM0_NAME": "United States", "ADM0_CODE": 2, "HEX05_CODE": "201934", "HEX05_X": -83.375, "HEX05_Y": 31.426150466868272, "VERSION": "0.01" }, "geometry": { "type": "Polygon", "coordinates": [ [ [ -83.625, 31.570488034165674 ], [ -83.375, 31.71482560146308 ], [ -83.125, 31.570488034165674 ], [ -83.125, 31.281812899570863 ], [ -83.375, 31.137475332273457 ], [ -83.625, 31.281812899570863 ], [ -83.625, 31.570488034165674 ] ] ] } },
{ "type": "Feature", "properties": { "ADM0_ISO3": "USA", "ADM0_NAME": "United States", "ADM0_CODE": 2, "HEX05_CODE": "201935", "HEX05_X": -82.875, "HEX05_Y": 31.426150466868272, "VERSION": "0.01" }, "geometry": { "type": "Polygon", "coordinates": [ [ [ -83.125, 31.570488034165674 ], [ -82.875, 31.71482560146308 ], [ -82.625, 31.570488034165674 ], [ -82.625, 31.281812899570863 ], [ -82.875, 31.137475332273457 ], [ -83.125, 31.281812899570863 ], [ -83.125, 31.570488034165674 ] ] ] } },
{ "type": "Feature", "properties": { "ADM0_ISO3": "USA", "ADM0_NAME": "United States", "ADM0_CODE": 2, "HEX05_CODE": "201936", "HEX05_X": -82.375, "HEX05_Y": 31.426150466868272, "VERSION": "0.01" }, "geometry": { "type": "Polygon", "coordinates": [ [ [ -82.625, 31.570488034165674 ], [ -82.375, 31.71482560146308 ], [ -82.125, 31.570488034165674 ], [ -82.125, 31.281812899570863 ], [ -82.375, 31.137475332273457 ], [ -82.625, 31.281812899570863 ], [ -82.625, 31.570488034165674 ] ] ] } },
{ "type": "Feature", "properties": { "ADM0_ISO3": "USA", "ADM0_NAME": "United States", "ADM0_CODE": 2, "HEX05_CODE": "201937", "HEX05_X": -81.875, "HEX05_Y": 31.426150466868272, "VERSION": "0.01" }, "geometry": { "type": "Polygon", "coordinates": [ [ [ -82.125, 31.570488034165674 ], [ -81.875, 31.71482560146308 ], [ -81.625, 31.570488034165674 ], [ -81.625, 31.281812899570863 ], [ -81.875, 31.137475332273457 ], [ -82.125, 31.281812899570863 ], [ -82.125, 31.570488034165674 ] ] ] } },
{ "type": "Feature", "properties": { "ADM0_ISO3": "USA", "ADM0_NAME": "United States", "ADM0_CODE": 2, "HEX05_CODE": "201938", "HEX05_X": -81.375, "HEX05_Y": 31.426150466868272, "VERSION": "0.01" }, "geometry": { "type": "Polygon", "coordinates": [ [ [ -81.625, 31.570488034165674 ], [ -81.375, 31.71482560146308 ], [ -81.125, 31.570488034165674 ], [ -81.125, 31.281812899570863 ], [ -81.375, 31.137475332273457 ], [ -81.625, 31.281812899570863 ], [ -81.625, 31.570488034165674 ] ] ] } },
{ "type": "Feature", "properties": { "ADM0_ISO3": "USA", "ADM0_NAME": "United States", "ADM0_CODE": 2, "HEX05_CODE": "202651", "HEX05_X": -85.125, "HEX05_Y": 31.859163168760496, "VERSION": "0.01" }, "geometry": { "type": "Polygon", "coordinates": [ [ [ -85.375, 32.003500736057902 ], [ -85.125, 32.147838303355307 ], [ -84.875, 32.003500736057902 ], [ -84.875, 31.714825601463087 ], [ -85.125, 31.570488034165681 ], [ -85.375, 31.714825601463087 ], [ -85.375, 32.003500736057902 ] ] ] } },
{ "type": "Feature", "properties": { "ADM0_ISO3": "USA", "ADM0_NAME": "United States", "ADM0_CODE": 2, "HEX05_CODE": "202652", "HEX05_X": -84.625, "HEX05_Y": 31.859163168760496, "VERSION": "0.01" }, "geometry": { "type": "Polygon", "coordinates": [ [ [ -84.875, 32.003500736057902 ], [ -84.625, 32.147838303355307 ], [ -84.375, 32.003500736057902 ], [ -84.375, 31.714825601463087 ], [ -84.625, 31.570488034165681 ], [ -84.875, 31.714825601463087 ], [ -84.875, 32.003500736057902 ] ] ] } },
{ "type": "Feature", "properties": { "ADM0_ISO3": "USA", "ADM0_NAME": "United States", "ADM0_CODE": 2, "HEX05_CODE": "202653", "HEX05_X": -84.125, "HEX05_Y": 31.859163168760496, "VERSION": "0.01" }, "geometry": { "type": "Polygon", "coordinates": [ [ [ -84.375, 32.003500736057902 ], [ -84.125, 32.147838303355307 ], [ -83.875, 32.003500736057902 ], [ -83.875, 31.714825601463087 ], [ -84.125, 31.570488034165681 ], [ -84.375, 31.714825601463087 ], [ -84.375, 32.003500736057902 ] ] ] } },
{ "type": "Feature", "properties": { "ADM0_ISO3": "USA", "ADM0_NAME": "United States", "ADM0_CODE": 2, "HEX05_CODE": "202654", "HEX05_X": -83.625, "HEX05_Y": 31.859163168760496, "VERSION": "0.01" }, "geometry": { "type": "Polygon", "coordinates": [ [ [ -83.875, 32.003500736057902 ], [ -83.625, 32.147838303355307 ], [ -83.375, 32.003500736057902 ], [ -83.375, 31.714825601463087 ], [ -83.625, 31.570488034165681 ], [ -83.875, 31.714825601463087 ], [ -83.875, 32.003500736057902 ] ] ] } },
{ "type": "Feature", "properties": { "ADM0_ISO3": "USA", "ADM0_NAME": "United States", "ADM0_CODE": 2, "HEX05_CODE": "202655", "HEX05_X": -83.125, "HEX05_Y": 31.859163168760496, "VERSION": "0.01" }, "geometry": { "type": "Polygon", "coordinates": [ [ [ -83.375, 32.003500736057902 ], [ -83.125, 32.147838303355307 ], [ -82.875, 32.003500736057902 ], [ -82.875, 31.714825601463087 ], [ -83.125, 31.570488034165681 ], [ -83.375, 31.714825601463087 ], [ -83.375, 32.003500736057902 ] ] ] } },
{ "type": "Feature", "properties": { "ADM0_ISO3": "USA", "ADM0_NAME": "United States", "ADM0_CODE": 2, "HEX05_CODE": "202656", "HEX05_X": -82.625, "HEX05_Y": 31.859163168760496, "VERSION": "0.01" }, "geometry": { "type": "Polygon", "coordinates": [ [ [ -82.875, 32.003500736057902 ], [ -82.625, 32.147838303355307 ], [ -82.375, 32.003500736057902 ], [ -82.375, 31.714825601463087 ], [ -82.625, 31.570488034165681 ], [ -82.875, 31.714825601463087 ], [ -82.875, 32.003500736057902 ] ] ] } },
{ "type": "Feature", "properties": { "ADM0_ISO3": "USA", "ADM0_NAME": "United States", "ADM0_CODE": 2, "HEX05_CODE": "202657", "HEX05_X": -82.125, "HEX05_Y": 31.859163168760496, "VERSION": "0.01" }, "geometry": { "type": "Polygon", "coordinates": [ [ [ -82.375, 32.003500736057902 ], [ -82.125, 32.147838303355307 ], [ -81.875, 32.003500736057902 ], [ -81.875, 31.714825601463087 ], [ -82.125, 31.570488034165681 ], [ -82.375, 31.714825601463087 ], [ -82.375, 32.003500736057902 ] ] ] } },
{ "type": "Feature", "properties": { "ADM0_ISO3": "USA", "ADM0_NAME": "United States", "ADM0_CODE": 2, "HEX05_CODE": "202658", "HEX05_X": -81.625, "HEX05_Y": 31.859163168760496, "VERSION": "0.01" }, "geometry": { "type": "Polygon", "coordinates": [ [ [ -81.875, 32.003500736057902 ], [ -81.625, 32.147838303355307 ], [ -81.375, 32.003500736057902 ], [ -81.375, 31.714825601463087 ], [ -81.625, 31.570488034165681 ], [ -81.875, 31.714825601463087 ], [ -81.875, 32.003500736057902 ] ] ] } },
{ "type": "Feature", "properties": { "ADM0_ISO3": "USA", "ADM0_NAME": "United States", "ADM0_CODE": 2, "HEX05_CODE": "202659", "HEX05_X": -81.125, "HEX05_Y": 31.859163168760496, "VERSION": "0.01" }, "geometry": { "type": "Polygon", "coordinates": [ [ [ -81.375, 32.003500736057902 ], [ -81.125, 32.147838303355307 ], [ -80.875, 32.003500736057902 ], [ -80.875, 31.714825601463087 ], [ -81.125, 31.570488034165681 ], [ -81.375, 31.714825601463087 ], [ -81.375, 32.003500736057902 ] ] ] } },
{ "type": "Feature", "properties": { "ADM0_ISO3": "USA", "ADM0_NAME": "United States", "ADM0_CODE": 2, "HEX05_CODE": "202660", "HEX05_X": -80.625, "HEX05_Y": 31.859163168760496, "VERSION": "0.01" }, "geometry": { "type": "Polygon", "coordinates": [ [ [ -80.875, 32.003500736057902 ], [ -80.625, 32.147838303355307 ], [ -80.375, 32.003500736057902 ], [ -80.375, 31.714825601463087 ], [ -80.625, 31.570488034165681 ], [ -80.875, 31.714825601463087 ], [ -80.875, 32.003500736057902 ] ] ] } },
{ "type": "Feature", "properties": { "ADM0_ISO3": "USA", "ADM0_NAME": "United States", "ADM0_CODE": 2, "HEX05_CODE": "203372", "HEX05_X": -84.875, "HEX05_Y": 32.292175870652706, "VERSION": "0.01" }, "geometry": { "type": "Polygon", "coordinates": [ [ [ -85.125, 32.436513437950111 ], [ -84.875, 32.580851005247517 ], [ -84.625, 32.436513437950111 ], [ -84.625, 32.1478383033553 ], [ -84.875, 32.003500736057894 ], [ -85.125, 32.1478383033553 ], [ -85.125, 32.436513437950111 ] ] ] } },
{ "type": "Feature", "properties": { "ADM0_ISO3": "USA", "ADM0_NAME": "United States", "ADM0_CODE": 2, "HEX05_CODE": "203373", "HEX05_X": -84.375, "HEX05_Y": 32.292175870652706, "VERSION": "0.01" }, "geometry": { "type": "Polygon", "coordinates": [ [ [ -84.625, 32.436513437950111 ], [ -84.375, 32.580851005247517 ], [ -84.125, 32.436513437950111 ], [ -84.125, 32.1478383033553 ], [ -84.375, 32.003500736057894 ], [ -84.625, 32.1478383033553 ], [ -84.625, 32.436513437950111 ] ] ] } },
{ "type": "Feature", "properties": { "ADM0_ISO3": "USA", "ADM0_NAME": "United States", "ADM0_CODE": 2, "HEX05_CODE": "203374", "HEX05_X": -83.875, "HEX05_Y": 32.292175870652706, "VERSION": "0.01" }, "geometry": { "type": "Polygon", "coordinates": [ [ [ -84.125, 32.436513437950111 ], [ -83.875, 32.580851005247517 ], [ -83.625, 32.436513437950111 ], [ -83.625, 32.1478383033553 ], [ -83.875, 32.003500736057894 ], [ -84.125, 32.1478383033553 ], [ -84.125, 32.436513437950111 ] ] ] } },
{ "type": "Feature", "properties": { "ADM0_ISO3": "USA", "ADM0_NAME": "United States", "ADM0_CODE": 2, "HEX05_CODE": "203375", "HEX05_X": -83.375, "HEX05_Y": 32.292175870652706, "VERSION": "0.01" }, "geometry": { "type": "Polygon", "coordinates": [ [ [ -83.625, 32.436513437950111 ], [ -83.375, 32.580851005247517 ], [ -83.125, 32.436513437950111 ], [ -83.125, 32.1478383033553 ], [ -83.375, 32.003500736057894 ], [ -83.625, 32.1478383033553 ], [ -83.625, 32.436513437950111 ] ] ] } },
{ "type": "Feature", "properties": { "ADM0_ISO3": "USA", "ADM0_NAME": "United States", "ADM0_CODE": 2, "HEX05_CODE": "203376", "HEX05_X": -82.875, "HEX05_Y": 32.292175870652706, "VERSION": "0.01" }, "geometry": { "type": "Polygon", "coordinates": [ [ [ -83.125, 32.436513437950111 ], [ -82.875, 32.580851005247517 ], [ -82.625, 32.436513437950111 ], [ -82.625, 32.1478383033553 ], [ -82.875, 32.003500736057894 ], [ -83.125, 32.1478383033553 ], [ -83.125, 32.436513437950111 ] ] ] } },
{ "type": "Feature", "properties": { "ADM0_ISO3": "USA", "ADM0_NAME": "United States", "ADM0_CODE": 2, "HEX05_CODE": "203377", "HEX05_X": -82.375, "HEX05_Y": 32.292175870652706, "VERSION": "0.01" }, "geometry": { "type": "Polygon", "coordinates": [ [ [ -82.625, 32.436513437950111 ], [ -82.375, 32.580851005247517 ], [ -82.125, 32.436513437950111 ], [ -82.125, 32.1478383033553 ], [ -82.375, 32.003500736057894 ], [ -82.625, 32.1478383033553 ], [ -82.625, 32.436513437950111 ] ] ] } },
{ "type": "Feature", "properties": { "ADM0_ISO3": "USA", "ADM0_NAME": "United States", "ADM0_CODE": 2, "HEX05_CODE": "203378", "HEX05_X": -81.875, "HEX05_Y": 32.292175870652706, "VERSION": "0.01" }, "geometry": { "type": "Polygon", "coordinates": [ [ [ -82.125, 32.436513437950111 ], [ -81.875, 32.580851005247517 ], [ -81.625, 32.436513437950111 ], [ -81.625, 32.1478383033553 ], [ -81.875, 32.003500736057894 ], [ -82.125, 32.1478383033553 ], [ -82.125, 32.436513437950111 ] ] ] } },
{ "type": "Feature", "properties": { "ADM0_ISO3": "USA", "ADM0_NAME": "United States", "ADM0_CODE": 2, "HEX05_CODE": "203379", "HEX05_X": -81.375, "HEX05_Y": 32.292175870652706, "VERSION": "0.01" }, "geometry": { "type": "Polygon", "coordinates": [ [ [ -81.625, 32.436513437950111 ], [ -81.375, 32.580851005247517 ], [ -81.125, 32.436513437950111 ], [ -81.125, 32.1478383033553 ], [ -81.375, 32.003500736057894 ], [ -81.625, 32.1478383033553 ], [ -81.625, 32.436513437950111 ] ] ] } },
{ "type": "Feature", "properties": { "ADM0_ISO3": "USA", "ADM0_NAME": "United States", "ADM0_CODE": 2, "HEX05_CODE": "203380", "HEX05_X": -80.875, "HEX05_Y": 32.292175870652706, "VERSION": "0.01" }, "geometry": { "type": "Polygon", "coordinates": [ [ [ -81.125, 32.436513437950111 ], [ -80.875, 32.580851005247517 ], [ -80.625, 32.436513437950111 ], [ -80.625, 32.1478383033553 ], [ -80.875, 32.003500736057894 ], [ -81.125, 32.1478383033553 ], [ -81.125, 32.436513437950111 ] ] ] } },
{ "type": "Feature", "properties": { "ADM0_ISO3": "USA", "ADM0_NAME": "United States", "ADM0_CODE": 2, "HEX05_CODE": "204092", "HEX05_X": -85.125, "HEX05_Y": 32.725188572544937, "VERSION": "0.01" }, "geometry": { "type": "Polygon", "coordinates": [ [ [ -85.375, 32.869526139842336 ], [ -85.125, 33.013863707139741 ], [ -84.875, 32.869526139842336 ], [ -84.875, 32.580851005247524 ], [ -85.125, 32.436513437950119 ], [ -85.375, 32.580851005247524 ], [ -85.375, 32.869526139842336 ] ] ] } },
{ "type": "Feature", "properties": { "ADM0_ISO3": "USA", "ADM0_NAME": "United States", "ADM0_CODE": 2, "HEX05_CODE": "204093", "HEX05_X": -84.625, "HEX05_Y": 32.725188572544937, "VERSION": "0.01" }, "geometry": { "type": "Polygon", "coordinates": [ [ [ -84.875, 32.869526139842336 ], [ -84.625, 33.013863707139741 ], [ -84.375, 32.869526139842336 ], [ -84.375, 32.580851005247524 ], [ -84.625, 32.436513437950119 ], [ -84.875, 32.580851005247524 ], [ -84.875, 32.869526139842336 ] ] ] } },
{ "type": "Feature", "properties": { "ADM0_ISO3": "USA", "ADM0_NAME": "United States", "ADM0_CODE": 2, "HEX05_CODE": "204094", "HEX05_X": -84.125, "HEX05_Y": 32.725188572544937, "VERSION": "0.01" }, "geometry": { "type": "Polygon", "coordinates": [ [ [ -84.375, 32.869526139842336 ], [ -84.125, 33.013863707139741 ], [ -83.875, 32.869526139842336 ], [ -83.875, 32.580851005247524 ], [ -84.125, 32.436513437950119 ], [ -84.375, 32.580851005247524 ], [ -84.375, 32.869526139842336 ] ] ] } },
{ "type": "Feature", "properties": { "ADM0_ISO3": "USA", "ADM0_NAME": "United States", "ADM0_CODE": 2, "HEX05_CODE": "204095", "HEX05_X": -83.625, "HEX05_Y": 32.725188572544937, "VERSION": "0.01" }, "geometry": { "type": "Polygon", "coordinates": [ [ [ -83.875, 32.869526139842336 ], [ -83.625, 33.013863707139741 ], [ -83.375, 32.869526139842336 ], [ -83.375, 32.580851005247524 ], [ -83.625, 32.436513437950119 ], [ -83.875, 32.580851005247524 ], [ -83.875, 32.869526139842336 ] ] ] } },
{ "type": "Feature", "properties": { "ADM0_ISO3": "USA", "ADM0_NAME": "United States", "ADM0_CODE": 2, "HEX05_CODE": "204096", "HEX05_X": -83.125, "HEX05_Y": 32.725188572544937, "VERSION": "0.01" }, "geometry": { "type": "Polygon", "coordinates": [ [ [ -83.375, 32.869526139842336 ], [ -83.125, 33.013863707139741 ], [ -82.875, 32.869526139842336 ], [ -82.875, 32.580851005247524 ], [ -83.125, 32.436513437950119 ], [ -83.375, 32.580851005247524 ], [ -83.375, 32.869526139842336 ] ] ] } },
{ "type": "Feature", "properties": { "ADM0_ISO3": "USA", "ADM0_NAME": "United States", "ADM0_CODE": 2, "HEX05_CODE": "204097", "HEX05_X": -82.625, "HEX05_Y": 32.725188572544937, "VERSION": "0.01" }, "geometry": { "type": "Polygon", "coordinates": [ [ [ -82.875, 32.869526139842336 ], [ -82.625, 33.013863707139741 ], [ -82.375, 32.869526139842336 ], [ -82.375, 32.580851005247524 ], [ -82.625, 32.436513437950119 ], [ -82.875, 32.580851005247524 ], [ -82.875, 32.869526139842336 ] ] ] } },
{ "type": "Feature", "properties": { "ADM0_ISO3": "USA", "ADM0_NAME": "United States", "ADM0_CODE": 2, "HEX05_CODE": "204098", "HEX05_X": -82.125, "HEX05_Y": 32.725188572544937, "VERSION": "0.01" }, "geometry": { "type": "Polygon", "coordinates": [ [ [ -82.375, 32.869526139842336 ], [ -82.125, 33.013863707139741 ], [ -81.875, 32.869526139842336 ], [ -81.875, 32.580851005247524 ], [ -82.125, 32.436513437950119 ], [ -82.375, 32.580851005247524 ], [ -82.375, 32.869526139842336 ] ] ] } },
{ "type": "Feature", "properties": { "ADM0_ISO3": "USA", "ADM0_NAME": "United States", "ADM0_CODE": 2, "HEX05_CODE": "204099", "HEX05_X": -81.625, "HEX05_Y": 32.725188572544937, "VERSION": "0.01" }, "geometry": { "type": "Polygon", "coordinates": [ [ [ -81.875, 32.869526139842336 ], [ -81.625, 33.013863707139741 ], [ -81.375, 32.869526139842336 ], [ -81.375, 32.580851005247524 ], [ -81.625, 32.436513437950119 ], [ -81.875, 32.580851005247524 ], [ -81.875, 32.869526139842336 ] ] ] } },
{ "type": "Feature", "properties": { "ADM0_ISO3": "USA", "ADM0_NAME": "United States", "ADM0_CODE": 2, "HEX05_CODE": "204100", "HEX05_X": -81.125, "HEX05_Y": 32.725188572544937, "VERSION": "0.01" }, "geometry": { "type": "Polygon", "coordinates": [ [ [ -81.375, 32.869526139842336 ], [ -81.125, 33.013863707139741 ], [ -80.875, 32.869526139842336 ], [ -80.875, 32.580851005247524 ], [ -81.125, 32.436513437950119 ], [ -81.375, 32.580851005247524 ], [ -81.375, 32.869526139842336 ] ] ] } },
{ "type": "Feature", "properties": { "ADM0_ISO3": "USA", "ADM0_NAME": "United States", "ADM0_CODE": 2, "HEX05_CODE": "204812", "HEX05_X": -85.375, "HEX05_Y": 33.158201274437154, "VERSION": "0.01" }, "geometry": { "type": "Polygon", "coordinates": [ [ [ -85.625, 33.30253884173456 ], [ -85.375, 33.446876409031965 ], [ -85.125, 33.30253884173456 ], [ -85.125, 33.013863707139748 ], [ -85.375, 32.869526139842343 ], [ -85.625, 33.013863707139748 ], [ -85.625, 33.30253884173456 ] ] ] } },
{ "type": "Feature", "properties": { "ADM0_ISO3": "USA", "ADM0_NAME": "United States", "ADM0_CODE": 2, "HEX05_CODE": "204813", "HEX05_X": -84.875, "HEX05_Y": 33.158201274437154, "VERSION": "0.01" }, "geometry": { "type": "Polygon", "coordinates": [ [ [ -85.125, 33.30253884173456 ], [ -84.875, 33.446876409031965 ], [ -84.625, 33.30253884173456 ], [ -84.625, 33.013863707139748 ], [ -84.875, 32.869526139842343 ], [ -85.125, 33.013863707139748 ], [ -85.125, 33.30253884173456 ] ] ] } },
{ "type": "Feature", "properties": { "ADM0_ISO3": "USA", "ADM0_NAME": "United States", "ADM0_CODE": 2, "HEX05_CODE": "204814", "HEX05_X": -84.375, "HEX05_Y": 33.158201274437154, "VERSION": "0.01" }, "geometry": { "type": "Polygon", "coordinates": [ [ [ -84.625, 33.30253884173456 ], [ -84.375, 33.446876409031965 ], [ -84.125, 33.30253884173456 ], [ -84.125, 33.013863707139748 ], [ -84.375, 32.869526139842343 ], [ -84.625, 33.013863707139748 ], [ -84.625, 33.30253884173456 ] ] ] } },
{ "type": "Feature", "properties": { "ADM0_ISO3": "USA", "ADM0_NAME": "United States", "ADM0_CODE": 2, "HEX05_CODE": "204815", "HEX05_X": -83.875, "HEX05_Y": 33.158201274437154, "VERSION": "0.01" }, "geometry": { "type": "Polygon", "coordinates": [ [ [ -84.125, 33.30253884173456 ], [ -83.875, 33.446876409031965 ], [ -83.625, 33.30253884173456 ], [ -83.625, 33.013863707139748 ], [ -83.875, 32.869526139842343 ], [ -84.125, 33.013863707139748 ], [ -84.125, 33.30253884173456 ] ] ] } },
{ "type": "Feature", "properties": { "ADM0_ISO3": "USA", "ADM0_NAME": "United States", "ADM0_CODE": 2, "HEX05_CODE": "204816", "HEX05_X": -83.375, "HEX05_Y": 33.158201274437154, "VERSION": "0.01" }, "geometry": { "type": "Polygon", "coordinates": [ [ [ -83.625, 33.30253884173456 ], [ -83.375, 33.446876409031965 ], [ -83.125, 33.30253884173456 ], [ -83.125, 33.013863707139748 ], [ -83.375, 32.869526139842343 ], [ -83.625, 33.013863707139748 ], [ -83.625, 33.30253884173456 ] ] ] } },
{ "type": "Feature", "properties": { "ADM0_ISO3": "USA", "ADM0_NAME": "United States", "ADM0_CODE": 2, "HEX05_CODE": "204817", "HEX05_X": -82.875, "HEX05_Y": 33.158201274437154, "VERSION": "0.01" }, "geometry": { "type": "Polygon", "coordinates": [ [ [ -83.125, 33.30253884173456 ], [ -82.875, 33.446876409031965 ], [ -82.625, 33.30253884173456 ], [ -82.625, 33.013863707139748 ], [ -82.875, 32.869526139842343 ], [ -83.125, 33.013863707139748 ], [ -83.125, 33.30253884173456 ] ] ] } },
{ "type": "Feature", "properties": { "ADM0_ISO3": "USA", "ADM0_NAME": "United States", "ADM0_CODE": 2, "HEX05_CODE": "204818", "HEX05_X": -82.375, "HEX05_Y": 33.158201274437154, "VERSION": "0.01" }, "geometry": { "type": "Polygon", "coordinates": [ [ [ -82.625, 33.30253884173456 ], [ -82.375, 33.446876409031965 ], [ -82.125, 33.30253884173456 ], [ -82.125, 33.013863707139748 ], [ -82.375, 32.869526139842343 ], [ -82.625, 33.013863707139748 ], [ -82.625, 33.30253884173456 ] ] ] } },
{ "type": "Feature", "properties": { "ADM0_ISO3": "USA", "ADM0_NAME": "United States", "ADM0_CODE": 2, "HEX05_CODE": "204819", "HEX05_X": -81.875, "HEX05_Y": 33.158201274437154, "VERSION": "0.01" }, "geometry": { "type": "Polygon", "coordinates": [ [ [ -82.125, 33.30253884173456 ], [ -81.875, 33.446876409031965 ], [ -81.625, 33.30253884173456 ], [ -81.625, 33.013863707139748 ], [ -81.875, 32.869526139842343 ], [ -82.125, 33.013863707139748 ], [ -82.125, 33.30253884173456 ] ] ] } },
{ "type": "Feature", "properties": { "ADM0_ISO3": "USA", "ADM0_NAME": "United States", "ADM0_CODE": 2, "HEX05_CODE": "204820", "HEX05_X": -81.375, "HEX05_Y": 33.158201274437154, "VERSION": "0.01" }, "geometry": { "type": "Polygon", "coordinates": [ [ [ -81.625, 33.30253884173456 ], [ -81.375, 33.446876409031965 ], [ -81.125, 33.30253884173456 ], [ -81.125, 33.013863707139748 ], [ -81.375, 32.869526139842343 ], [ -81.625, 33.013863707139748 ], [ -81.625, 33.30253884173456 ] ] ] } },
{ "type": "Feature", "properties": { "ADM0_ISO3": "USA", "ADM0_NAME": "United States", "ADM0_CODE": 2, "HEX05_CODE": "205533", "HEX05_X": -85.125, "HEX05_Y": 33.591213976329364, "VERSION": "0.01" }, "geometry": { "type": "Polygon", "coordinates": [ [ [ -85.375, 33.735551543626769 ], [ -85.125, 33.879889110924175 ], [ -84.875, 33.735551543626769 ], [ -84.875, 33.446876409031958 ], [ -85.125, 33.302538841734552 ], [ -85.375, 33.446876409031958 ], [ -85.375, 33.735551543626769 ] ] ] } },
{ "type": "Feature", "properties": { "ADM0_ISO3": "USA", "ADM0_NAME": "United States", "ADM0_CODE": 2, "HEX05_CODE": "205534", "HEX05_X": -84.625, "HEX05_Y": 33.591213976329364, "VERSION": "0.01" }, "geometry": { "type": "Polygon", "coordinates": [ [ [ -84.875, 33.735551543626769 ], [ -84.625, 33.879889110924175 ], [ -84.375, 33.735551543626769 ], [ -84.375, 33.446876409031958 ], [ -84.625, 33.302538841734552 ], [ -84.875, 33.446876409031958 ], [ -84.875, 33.735551543626769 ] ] ] } },
{ "type": "Feature", "properties": { "ADM0_ISO3": "USA", "ADM0_NAME": "United States", "ADM0_CODE": 2, "HEX05_CODE": "205535", "HEX05_X": -84.125, "HEX05_Y": 33.591213976329364, "VERSION": "0.01" }, "geometry": { "type": "Polygon", "coordinates": [ [ [ -84.375, 33.735551543626769 ], [ -84.125, 33.879889110924175 ], [ -83.875, 33.735551543626769 ], [ -83.875, 33.446876409031958 ], [ -84.125, 33.302538841734552 ], [ -84.375, 33.446876409031958 ], [ -84.375, 33.735551543626769 ] ] ] } },
{ "type": "Feature", "properties": { "ADM0_ISO3": "USA", "ADM0_NAME": "United States", "ADM0_CODE": 2, "HEX05_CODE": "205536", "HEX05_X": -83.625, "HEX05_Y": 33.591213976329364, "VERSION": "0.01" }, "geometry": { "type": "Polygon", "coordinates": [ [ [ -83.875, 33.735551543626769 ], [ -83.625, 33.879889110924175 ], [ -83.375, 33.735551543626769 ], [ -83.375, 33.446876409031958 ], [ -83.625, 33.302538841734552 ], [ -83.875, 33.446876409031958 ], [ -83.875, 33.735551543626769 ] ] ] } },
{ "type": "Feature", "properties": { "ADM0_ISO3": "USA", "ADM0_NAME": "United States", "ADM0_CODE": 2, "HEX05_CODE": "205537", "HEX05_X": -83.125, "HEX05_Y": 33.591213976329364, "VERSION": "0.01" }, "geometry": { "type": "Polygon", "coordinates": [ [ [ -83.375, 33.735551543626769 ], [ -83.125, 33.879889110924175 ], [ -82.875, 33.735551543626769 ], [ -82.875, 33.446876409031958 ], [ -83.125, 33.302538841734552 ], [ -83.375, 33.446876409031958 ], [ -83.375, 33.735551543626769 ] ] ] } },
{ "type": "Feature", "properties": { "ADM0_ISO3": "USA", "ADM0_NAME": "United States", "ADM0_CODE": 2, "HEX05_CODE": "205538", "HEX05_X": -82.625, "HEX05_Y": 33.591213976329364, "VERSION": "0.01" }, "geometry": { "type": "Polygon", "coordinates": [ [ [ -82.875, 33.735551543626769 ], [ -82.625, 33.879889110924175 ], [ -82.375, 33.735551543626769 ], [ -82.375, 33.446876409031958 ], [ -82.625, 33.302538841734552 ], [ -82.875, 33.446876409031958 ], [ -82.875, 33.735551543626769 ] ] ] } },
{ "type": "Feature", "properties": { "ADM0_ISO3": "USA", "ADM0_NAME": "United States", "ADM0_CODE": 2, "HEX05_CODE": "205539", "HEX05_X": -82.125, "HEX05_Y": 33.591213976329364, "VERSION": "0.01" }, "geometry": { "type": "Polygon", "coordinates": [ [ [ -82.375, 33.735551543626769 ], [ -82.125, 33.879889110924175 ], [ -81.875, 33.735551543626769 ], [ -81.875, 33.446876409031958 ], [ -82.125, 33.302538841734552 ], [ -82.375, 33.446876409031958 ], [ -82.375, 33.735551543626769 ] ] ] } },
{ "type": "Feature", "properties": { "ADM0_ISO3": "USA", "ADM0_NAME": "United States", "ADM0_CODE": 2, "HEX05_CODE": "206253", "HEX05_X": -85.375, "HEX05_Y": 34.024226678221588, "VERSION": "0.01" }, "geometry": { "type": "Polygon", "coordinates": [ [ [ -85.625, 34.168564245518994 ], [ -85.375, 34.312901812816399 ], [ -85.125, 34.168564245518994 ], [ -85.125, 33.879889110924182 ], [ -85.375, 33.735551543626777 ], [ -85.625, 33.879889110924182 ], [ -85.625, 34.168564245518994 ] ] ] } },
{ "type": "Feature", "properties": { "ADM0_ISO3": "USA", "ADM0_NAME": "United States", "ADM0_CODE": 2, "HEX05_CODE": "206254", "HEX05_X": -84.875, "HEX05_Y": 34.024226678221588, "VERSION": "0.01" }, "geometry": { "type": "Polygon", "coordinates": [ [ [ -85.125, 34.168564245518994 ], [ -84.875, 34.312901812816399 ], [ -84.625, 34.168564245518994 ], [ -84.625, 33.879889110924182 ], [ -84.875, 33.735551543626777 ], [ -85.125, 33.879889110924182 ], [ -85.125, 34.168564245518994 ] ] ] } },
{ "type": "Feature", "properties": { "ADM0_ISO3": "USA", "ADM0_NAME": "United States", "ADM0_CODE": 2, "HEX05_CODE": "206255", "HEX05_X": -84.375, "HEX05_Y": 34.024226678221588, "VERSION": "0.01" }, "geometry": { "type": "Polygon", "coordinates": [ [ [ -84.625, 34.168564245518994 ], [ -84.375, 34.312901812816399 ], [ -84.125, 34.168564245518994 ], [ -84.125, 33.879889110924182 ], [ -84.375, 33.735551543626777 ], [ -84.625, 33.879889110924182 ], [ -84.625, 34.168564245518994 ] ] ] } },
{ "type": "Feature", "properties": { "ADM0_ISO3": "USA", "ADM0_NAME": "United States", "ADM0_CODE": 2, "HEX05_CODE": "206256", "HEX05_X": -83.875, "HEX05_Y": 34.024226678221588, "VERSION": "0.01" }, "geometry": { "type": "Polygon", "coordinates": [ [ [ -84.125, 34.168564245518994 ], [ -83.875, 34.312901812816399 ], [ -83.625, 34.168564245518994 ], [ -83.625, 33.879889110924182 ], [ -83.875, 33.735551543626777 ], [ -84.125, 33.879889110924182 ], [ -84.125, 34.168564245518994 ] ] ] } },
{ "type": "Feature", "properties": { "ADM0_ISO3": "USA", "ADM0_NAME": "United States", "ADM0_CODE": 2, "HEX05_CODE": "206257", "HEX05_X": -83.375, "HEX05_Y": 34.024226678221588, "VERSION": "0.01" }, "geometry": { "type": "Polygon", "coordinates": [ [ [ -83.625, 34.168564245518994 ], [ -83.375, 34.312901812816399 ], [ -83.125, 34.168564245518994 ], [ -83.125, 33.879889110924182 ], [ -83.375, 33.735551543626777 ], [ -83.625, 33.879889110924182 ], [ -83.625, 34.168564245518994 ] ] ] } },
{ "type": "Feature", "properties": { "ADM0_ISO3": "USA", "ADM0_NAME": "United States", "ADM0_CODE": 2, "HEX05_CODE": "206258", "HEX05_X": -82.875, "HEX05_Y": 34.024226678221588, "VERSION": "0.01" }, "geometry": { "type": "Polygon", "coordinates": [ [ [ -83.125, 34.168564245518994 ], [ -82.875, 34.312901812816399 ], [ -82.625, 34.168564245518994 ], [ -82.625, 33.879889110924182 ], [ -82.875, 33.735551543626777 ], [ -83.125, 33.879889110924182 ], [ -83.125, 34.168564245518994 ] ] ] } },
{ "type": "Feature", "properties": { "ADM0_ISO3": "USA", "ADM0_NAME": "United States", "ADM0_CODE": 2, "HEX05_CODE": "206259", "HEX05_X": -82.375, "HEX05_Y": 34.024226678221588, "VERSION": "0.01" }, "geometry": { "type": "Polygon", "coordinates": [ [ [ -82.625, 34.168564245518994 ], [ -82.375, 34.312901812816399 ], [ -82.125, 34.168564245518994 ], [ -82.125, 33.879889110924182 ], [ -82.375, 33.735551543626777 ], [ -82.625, 33.879889110924182 ], [ -82.625, 34.168564245518994 ] ] ] } },
{ "type": "Feature", "properties": { "ADM0_ISO3": "USA", "ADM0_NAME": "United States", "ADM0_CODE": 2, "HEX05_CODE": "206973", "HEX05_X": -85.625, "HEX05_Y": 34.457239380113812, "VERSION": "0.01" }, "geometry": { "type": "Polygon", "coordinates": [ [ [ -85.875, 34.601576947411218 ], [ -85.625, 34.745914514708623 ], [ -85.375, 34.601576947411218 ], [ -85.375, 34.312901812816406 ], [ -85.625, 34.168564245519001 ], [ -85.875, 34.312901812816406 ], [ -85.875, 34.601576947411218 ] ] ] } },
{ "type": "Feature", "properties": { "ADM0_ISO3": "USA", "ADM0_NAME": "United States", "ADM0_CODE": 2, "HEX05_CODE": "206974", "HEX05_X": -85.125, "HEX05_Y": 34.457239380113812, "VERSION": "0.01" }, "geometry": { "type": "Polygon", "coordinates": [ [ [ -85.375, 34.601576947411218 ], [ -85.125, 34.745914514708623 ], [ -84.875, 34.601576947411218 ], [ -84.875, 34.312901812816406 ], [ -85.125, 34.168564245519001 ], [ -85.375, 34.312901812816406 ], [ -85.375, 34.601576947411218 ] ] ] } },
{ "type": "Feature", "properties": { "ADM0_ISO3": "USA", "ADM0_NAME": "United States", "ADM0_CODE": 2, "HEX05_CODE": "206975", "HEX05_X": -84.625, "HEX05_Y": 34.457239380113812, "VERSION": "0.01" }, "geometry": { "type": "Polygon", "coordinates": [ [ [ -84.875, 34.601576947411218 ], [ -84.625, 34.745914514708623 ], [ -84.375, 34.601576947411218 ], [ -84.375, 34.312901812816406 ], [ -84.625, 34.168564245519001 ], [ -84.875, 34.312901812816406 ], [ -84.875, 34.601576947411218 ] ] ] } },
{ "type": "Feature", "properties": { "ADM0_ISO3": "USA", "ADM0_NAME": "United States", "ADM0_CODE": 2, "HEX05_CODE": "206976", "HEX05_X": -84.125, "HEX05_Y": 34.457239380113812, "VERSION": "0.01" }, "geometry": { "type": "Polygon", "coordinates": [ [ [ -84.375, 34.601576947411218 ], [ -84.125, 34.745914514708623 ], [ -83.875, 34.601576947411218 ], [ -83.875, 34.312901812816406 ], [ -84.125, 34.168564245519001 ], [ -84.375, 34.312901812816406 ], [ -84.375, 34.601576947411218 ] ] ] } },
{ "type": "Feature", "properties": { "ADM0_ISO3": "USA", "ADM0_NAME": "United States", "ADM0_CODE": 2, "HEX05_CODE": "206977", "HEX05_X": -83.625, "HEX05_Y": 34.457239380113812, "VERSION": "0.01" }, "geometry": { "type": "Polygon", "coordinates": [ [ [ -83.875, 34.601576947411218 ], [ -83.625, 34.745914514708623 ], [ -83.375, 34.601576947411218 ], [ -83.375, 34.312901812816406 ], [ -83.625, 34.168564245519001 ], [ -83.875, 34.312901812816406 ], [ -83.875, 34.601576947411218 ] ] ] } },
{ "type": "Feature", "properties": { "ADM0_ISO3": "USA", "ADM0_NAME": "United States", "ADM0_CODE": 2, "HEX05_CODE": "206978", "HEX05_X": -83.125, "HEX05_Y": 34.457239380113812, "VERSION": "0.01" }, "geometry": { "type": "Polygon", "coordinates": [ [ [ -83.375, 34.601576947411218 ], [ -83.125, 34.745914514708623 ], [ -82.875, 34.601576947411218 ], [ -82.875, 34.312901812816406 ], [ -83.125, 34.168564245519001 ], [ -83.375, 34.312901812816406 ], [ -83.375, 34.601576947411218 ] ] ] } },
{ "type": "Feature", "properties": { "ADM0_ISO3": "USA", "ADM0_NAME": "United States", "ADM0_CODE": 2, "HEX05_CODE": "206979", "HEX05_X": -82.625, "HEX05_Y": 34.457239380113812, "VERSION": "0.01" }, "geometry": { "type": "Polygon", "coordinates": [ [ [ -82.875, 34.601576947411218 ], [ -82.625, 34.745914514708623 ], [ -82.375, 34.601576947411218 ], [ -82.375, 34.312901812816406 ], [ -82.625, 34.168564245519001 ], [ -82.875, 34.312901812816406 ], [ -82.875, 34.601576947411218 ] ] ] } },
{ "type": "Feature", "properties": { "ADM0_ISO3": "USA", "ADM0_NAME": "United States", "ADM0_CODE": 2, "HEX05_CODE": "207694", "HEX05_X": -85.375, "HEX05_Y": 34.890252082006022, "VERSION": "0.01" }, "geometry": { "type": "Polygon", "coordinates": [ [ [ -85.625, 35.034589649303427 ], [ -85.375, 35.178927216600833 ], [ -85.125, 35.034589649303427 ], [ -85.125, 34.745914514708616 ], [ -85.375, 34.60157694741121 ], [ -85.625, 34.745914514708616 ], [ -85.625, 35.034589649303427 ] ] ] } },
{ "type": "Feature", "properties": { "ADM0_ISO3": "USA", "ADM0_NAME": "United States", "ADM0_CODE": 2, "HEX05_CODE": "207695", "HEX05_X": -84.875, "HEX05_Y": 34.890252082006022, "VERSION": "0.01" }, "geometry": { "type": "Polygon", "coordinates": [ [ [ -85.125, 35.034589649303427 ], [ -84.875, 35.178927216600833 ], [ -84.625, 35.034589649303427 ], [ -84.625, 34.745914514708616 ], [ -84.875, 34.60157694741121 ], [ -85.125, 34.745914514708616 ], [ -85.125, 35.034589649303427 ] ] ] } },
{ "type": "Feature", "properties": { "ADM0_ISO3": "USA", "ADM0_NAME": "United States", "ADM0_CODE": 2, "HEX05_CODE": "207696", "HEX05_X": -84.375, "HEX05_Y": 34.890252082006022, "VERSION": "0.01" }, "geometry": { "type": "Polygon", "coordinates": [ [ [ -84.625, 35.034589649303427 ], [ -84.375, 35.178927216600833 ], [ -84.125, 35.034589649303427 ], [ -84.125, 34.745914514708616 ], [ -84.375, 34.60157694741121 ], [ -84.625, 34.745914514708616 ], [ -84.625, 35.034589649303427 ] ] ] } },
{ "type": "Feature", "properties": { "ADM0_ISO3": "USA", "ADM0_NAME": "United States", "ADM0_CODE": 2, "HEX05_CODE": "207697", "HEX05_X": -83.875, "HEX05_Y": 34.890252082006022, "VERSION": "0.01" }, "geometry": { "type": "Polygon", "coordinates": [ [ [ -84.125, 35.034589649303427 ], [ -83.875, 35.178927216600833 ], [ -83.625, 35.034589649303427 ], [ -83.625, 34.745914514708616 ], [ -83.875, 34.60157694741121 ], [ -84.125, 34.745914514708616 ], [ -84.125, 35.034589649303427 ] ] ] } },
{ "type": "Feature", "properties": { "ADM0_ISO3": "USA", "ADM0_NAME": "United States", "ADM0_CODE": 2, "HEX05_CODE": "207698", "HEX05_X": -83.375, "HEX05_Y": 34.890252082006022, "VERSION": "0.01" }, "geometry": { "type": "Polygon", "coordinates": [ [ [ -83.625, 35.034589649303427 ], [ -83.375, 35.178927216600833 ], [ -83.125, 35.034589649303427 ], [ -83.125, 34.745914514708616 ], [ -83.375, 34.60157694741121 ], [ -83.625, 34.745914514708616 ], [ -83.625, 35.034589649303427 ] ] ] } },
{ "type": "Feature", "properties": { "ADM0_ISO3": "USA", "ADM0_NAME": "United States", "ADM0_CODE": 2, "HEX05_CODE": "207699", "HEX05_X": -82.875, "HEX05_Y": 34.890252082006022, "VERSION": "0.01" }, "geometry": { "type": "Polygon", "coordinates": [ [ [ -83.125, 35.034589649303427 ], [ -82.875, 35.178927216600833 ], [ -82.625, 35.034589649303427 ], [ -82.625, 34.745914514708616 ], [ -82.875, 34.60157694741121 ], [ -83.125, 34.745914514708616 ], [ -83.125, 35.034589649303427 ] ] ] } }
]
}
